CCSDS_OMM_VERS = 2.0
CREATION_DATE  = 
ORIGINATOR     = 

OBJECT_NAME    = 1998-067XU
OBJECT_ID      = 1998-067XU
CENTER_NAME    = EARTH
REF_FRAME      = TEME
TIME_SYSTEM    = UTC
MEAN_ELEMENT_THEORY = SGP/SGP4

EPOCH          = 2026-01-22T11:40:34.800096
MEAN_MOTION    = 15.57796220
ECCENTRICITY   = .0003309
INCLINATION    = 51.6293
RA_OF_ASC_NODE = 299.1343
ARG_OF_PERICENTER = 99.1552
MEAN_ANOMALY   = 260.9815

EPHEMERIS_TYPE = 0
CLASSIFICATION_TYPE = U
NORAD_CAT_ID   = 66908
ELEMENT_SET_NO = 999
REV_AT_EPOCH   = 795
BSTAR          = .1332E-2
MEAN_MOTION_DOT = .101804E-2
MEAN_MOTION_DDOT = 0

CCSDS_OMM_VERS = 2.0
CREATION_DATE  = 
ORIGINATOR     = 

OBJECT_NAME    = SILVERSAT
OBJECT_ID      = 1998-067XV
CENTER_NAME    = EARTH
REF_FRAME      = TEME
TIME_SYSTEM    = UTC
MEAN_ELEMENT_THEORY = SGP/SGP4

EPOCH          = 2026-01-22T11:22:27.437088
MEAN_MOTION    = 15.58739915
ECCENTRICITY   = .000362
INCLINATION    = 51.6293
RA_OF_ASC_NODE = 299.0513
ARG_OF_PERICENTER = 112.6606
MEAN_ANOMALY   = 247.4770

EPHEMERIS_TYPE = 0
CLASSIFICATION_TYPE = U
NORAD_CAT_ID   = 66909
ELEMENT_SET_NO = 999
REV_AT_EPOCH   = 795
BSTAR          = .14158E-2
MEAN_MOTION_DOT = .112321E-2
MEAN_MOTION_DDOT = 0

CCSDS_OMM_VERS = 2.0
CREATION_DATE  = 
ORIGINATOR     = 

OBJECT_NAME    = 1998-067XW
OBJECT_ID      = 1998-067XW
CENTER_NAME    = EARTH
REF_FRAME      = TEME
TIME_SYSTEM    = UTC
MEAN_ELEMENT_THEORY = SGP/SGP4

EPOCH          = 2026-01-22T00:41:36.733632
MEAN_MOTION    = 15.58009470
ECCENTRICITY   = .00021028
INCLINATION    = 51.6293
RA_OF_ASC_NODE = 301.3257
ARG_OF_PERICENTER = 86.8684
MEAN_ANOMALY   = 273.2549

EPHEMERIS_TYPE = 0
CLASSIFICATION_TYPE = U
NORAD_CAT_ID   = 66910
ELEMENT_SET_NO = 999
REV_AT_EPOCH   = 788
BSTAR          = .13486112E-2
MEAN_MOTION_DOT = .103927E-2
MEAN_MOTION_DDOT = 0

CCSDS_OMM_VERS = 2.0
CREATION_DATE  = 
ORIGINATOR     = 

OBJECT_NAME    = 1998-067XX
OBJECT_ID      = 1998-067XX
CENTER_NAME    = EARTH
REF_FRAME      = TEME
TIME_SYSTEM    = UTC
MEAN_ELEMENT_THEORY = SGP/SGP4

EPOCH          = 2026-01-22T00:10:45.908256
MEAN_MOTION    = 15.59622931
ECCENTRICITY   = .00023851
INCLINATION    = 51.6279
RA_OF_ASC_NODE = 301.1834
ARG_OF_PERICENTER = 115.6769
MEAN_ANOMALY   = 244.4470

EPHEMERIS_TYPE = 0
CLASSIFICATION_TYPE = U
NORAD_CAT_ID   = 66911
ELEMENT_SET_NO = 999
REV_AT_EPOCH   = 787
BSTAR          = .16952069E-2
MEAN_MOTION_DOT = .139644E-2
MEAN_MOTION_DDOT = 0

CCSDS_OMM_VERS = 2.0
CREATION_DATE  = 
ORIGINATOR     = 

OBJECT_NAME    = 1998-067XY
OBJECT_ID      = 1998-067XY
CENTER_NAME    = EARTH
REF_FRAME      = TEME
TIME_SYSTEM    = UTC
MEAN_ELEMENT_THEORY = SGP/SGP4

EPOCH          = 2026-01-21T23:59:47.790816
MEAN_MOTION    = 15.55982915
ECCENTRICITY   = .00030664
INCLINATION    = 51.6304
RA_OF_ASC_NODE = 301.8855
ARG_OF_PERICENTER = 79.5565
MEAN_ANOMALY   = 280.5771

EPHEMERIS_TYPE = 0
CLASSIFICATION_TYPE = U
NORAD_CAT_ID   = 66912
ELEMENT_SET_NO = 999
REV_AT_EPOCH   = 786
BSTAR          = .11445408E-2
MEAN_MOTION_DOT = .81461E-3
MEAN_MOTION_DDOT = 0

